FENGYUN 1C DEB          
1 30648U 99025APF 17345.87577183  .00000806  00000-0  36657-3 0  9996
2 30648  98.8096  37.5278 0048190  37.7043  17.0809 14.23961643561052
